[{"OBJECT_NAME":"ONEWEB-0665","OBJECT_ID":"2023-029AF","EPOCH":"2026-03-14T14:52:55.506432","MEAN_MOTION":13.14503028,"ECCENTRICITY":0.00016924,"INCLINATION":87.8969,"RA_OF_ASC_NODE":308.6033,"ARG_OF_PERICENTER":93.4992,"MEAN_ANOMALY":266.6332,"EPHEMERIS_TYPE":0,"CLASSIFICATION_TYPE":"U","NORAD_CAT_ID":55825,"ELEMENT_SET_NO":999,"REV_AT_EPOCH":14698,"BSTAR":-5.6855359e-5,"MEAN_MOTION_DOT":-8.0e-8,"MEAN_MOTION_DDOT":0},{"OBJECT_NAME":"ONEWEB-0666","OBJECT_ID":"2023-029AG","EPOCH":"2026-03-14T13:33:28.910016","MEAN_MOTION":13.20770748,"ECCENTRICITY":0.00018695,"INCLINATION":87.9153,"RA_OF_ASC_NODE":293.3764,"ARG_OF_PERICENTER":64.2765,"MEAN_ANOMALY":295.8561,"EPHEMERIS_TYPE":0,"CLASSIFICATION_TYPE":"U","NORAD_CAT_ID":55826,"ELEMENT_SET_NO":999,"REV_AT_EPOCH":14866,"BSTAR":0.00021202942,"MEAN_MOTION_DOT":9.9e-7,"MEAN_MOTION_DDOT":0},{"OBJECT_NAME":"ONEWEB-0667","OBJECT_ID":"2023-029AH","EPOCH":"2026-03-14T13:24:23.918688","MEAN_MOTION":13.2077076,"ECCENTRICITY":0.00016169,"INCLINATION":87.9172,"RA_OF_ASC_NODE":293.3195,"ARG_OF_PERICENTER":92.9299,"MEAN_ANOMALY":267.2019,"EPHEMERIS_TYPE":0,"CLASSIFICATION_TYPE":"U","NORAD_CAT_ID":55827,"ELEMENT_SET_NO":999,"REV_AT_EPOCH":14865,"BSTAR":0.00016752202,"MEAN_MOTION_DOT":8.1e-7,"MEAN_MOTION_DDOT":0},{"OBJECT_NAME":"ONEWEB-0669","OBJECT_ID":"2023-029AJ","EPOCH":"2026-03-14T13:17:34.665216","MEAN_MOTION":13.20771103,"ECCENTRICITY":0.00011323,"INCLINATION":87.9156,"RA_OF_ASC_NODE":293.3446,"ARG_OF_PERICENTER":73.0507,"MEAN_ANOMALY":287.075,"EPHEMERIS_TYPE":0,"CLASSIFICATION_TYPE":"U","NORAD_CAT_ID":55828,"ELEMENT_SET_NO":999,"REV_AT_EPOCH":14865,"BSTAR":0.00025696391,"MEAN_MOTION_DOT":1.17e-6,"MEAN_MOTION_DDOT":0},{"OBJECT_NAME":"ONEWEB-0670","OBJECT_ID":"2023-029AK","EPOCH":"2026-03-14T14:20:56.706720","MEAN_MOTION":13.14503367,"ECCENTRICITY":0.0001332,"INCLINATION":87.8971,"RA_OF_ASC_NODE":308.6266,"ARG_OF_PERICENTER":93.7388,"MEAN_ANOMALY":266.3894,"EPHEMERIS_TYPE":0,"CLASSIFICATION_TYPE":"U","NORAD_CAT_ID":55829,"ELEMENT_SET_NO":999,"REV_AT_EPOCH":14700,"BSTAR":-0.00054094631,"MEAN_MOTION_DOT":-1.88e-6,"MEAN_MOTION_DDOT":0},{"OBJECT_NAME":"ONEWEB-0671","OBJECT_ID":"2023-029AL","EPOCH":"2026-03-14T14:17:55.345344","MEAN_MOTION":13.19724965,"ECCENTRICITY":0.00016782,"INCLINATION":87.9223,"RA_OF_ASC_NODE":323.8275,"ARG_OF_PERICENTER":86.2343,"MEAN_ANOMALY":273.8982,"EPHEMERIS_TYPE":0,"CLASSIFICATION_TYPE":"U","NORAD_CAT_ID":55830,"ELEMENT_SET_NO":999,"REV_AT_EPOCH":14642,"BSTAR":-2.0918842e-5,"MEAN_MOTION_DOT":5.0e-8,"MEAN_MOTION_DDOT":0},{"OBJECT_NAME":"ONEWEB-0672","OBJECT_ID":"2023-029AM","EPOCH":"2026-03-14T14:59:52.342368","MEAN_MOTION":13.20786898,"ECCENTRICITY":0.00017583,"INCLINATION":87.9158,"RA_OF_ASC_NODE":293.317,"ARG_OF_PERICENTER":77.1514,"MEAN_ANOMALY":282.9816,"EPHEMERIS_TYPE":0,"CLASSIFICATION_TYPE":"U","NORAD_CAT_ID":55831,"ELEMENT_SET_NO":999,"REV_AT_EPOCH":14866,"BSTAR":0.0032245123,"MEAN_MOTION_DOT":1.325e-5,"MEAN_MOTION_DDOT":0},{"OBJECT_NAME":"ONEWEB-0673","OBJECT_ID":"2023-029AN","EPOCH":"2026-03-14T15:34:06.292416","MEAN_MOTION":13.19724197,"ECCENTRICITY":0.00016425,"INCLINATION":87.9225,"RA_OF_ASC_NODE":323.8022,"ARG_OF_PERICENTER":86.0017,"MEAN_ANOMALY":274.1303,"EPHEMERIS_TYPE":0,"CLASSIFICATION_TYPE":"U","NORAD_CAT_ID":55832,"ELEMENT_SET_NO":999,"REV_AT_EPOCH":14643,"BSTAR":0.00015362671,"MEAN_MOTION_DOT":7.4e-7,"MEAN_MOTION_DDOT":0},{"OBJECT_NAME":"ONEWEB-0674","OBJECT_ID":"2023-029AP","EPOCH":"2026-03-14T09:56:03.560640","MEAN_MOTION":13.14502753,"ECCENTRICITY":0.00012668,"INCLINATION":87.8973,"RA_OF_ASC_NODE":308.6404,"ARG_OF_PERICENTER":92.893,"MEAN_ANOMALY":267.2345,"EPHEMERIS_TYPE":0,"CLASSIFICATION_TYPE":"U","NORAD_CAT_ID":55833,"ELEMENT_SET_NO":999,"REV_AT_EPOCH":14696,"BSTAR":0.00065064311,"MEAN_MOTION_DOT":2.54e-6,"MEAN_MOTION_DDOT":0},{"OBJECT_NAME":"ONEWEB-0675","OBJECT_ID":"2023-029AQ","EPOCH":"2026-03-14T15:55:43.689504","MEAN_MOTION":13.19724678,"ECCENTRICITY":0.00019662,"INCLINATION":87.9218,"RA_OF_ASC_NODE":323.8154,"ARG_OF_PERICENTER":73.7475,"MEAN_ANOMALY":286.3874,"EPHEMERIS_TYPE":0,"CLASSIFICATION_TYPE":"U","NORAD_CAT_ID":55834,"ELEMENT_SET_NO":999,"REV_AT_EPOCH":14645,"BSTAR":4.568922e-5,"MEAN_MOTION_DOT":3.1e-7,"MEAN_MOTION_DDOT":0},{"OBJECT_NAME":"ONEWEB-0720","OBJECT_ID":"2023-029AR","EPOCH":"2026-03-14T15:44:21.927840","MEAN_MOTION":13.19724997,"ECCENTRICITY":0.00018704,"INCLINATION":87.9223,"RA_OF_ASC_NODE":323.8174,"ARG_OF_PERICENTER":90.2598,"MEAN_ANOMALY":269.8749,"EPHEMERIS_TYPE":0,"CLASSIFICATION_TYPE":"U","NORAD_CAT_ID":55835,"ELEMENT_SET_NO":999,"REV_AT_EPOCH":14637,"BSTAR":-1.7464567e-5,"MEAN_MOTION_DOT":6.0e-8,"MEAN_MOTION_DDOT":0},{"OBJECT_NAME":"ONEWEB-0537","OBJECT_ID":"2023-043A","EPOCH":"2026-03-14T10:13:59.308896","MEAN_MOTION":13.16593464,"ECCENTRICITY":0.00016522,"INCLINATION":87.9011,"RA_OF_ASC_NODE":247.6165,"ARG_OF_PERICENTER":89.6287,"MEAN_ANOMALY":270.5033,"EPHEMERIS_TYPE":0,"CLASSIFICATION_TYPE":"U","NORAD_CAT_ID":56046,"ELEMENT_SET_NO":999,"REV_AT_EPOCH":14649,"BSTAR":-5.7935541e-5,"MEAN_MOTION_DOT":-9.0e-8,"MEAN_MOTION_DDOT":0},{"OBJECT_NAME":"ONEWEB-0538","OBJECT_ID":"2023-043B","EPOCH":"2026-03-14T11:54:19.016352","MEAN_MOTION":13.1659422,"ECCENTRICITY":0.0001892,"INCLINATION":87.9008,"RA_OF_ASC_NODE":247.6051,"ARG_OF_PERICENTER":93.4138,"MEAN_ANOMALY":266.7209,"EPHEMERIS_TYPE":0,"CLASSIFICATION_TYPE":"U","NORAD_CAT_ID":56047,"ELEMENT_SET_NO":999,"REV_AT_EPOCH":14651,"BSTAR":-9.3778505e-5,"MEAN_MOTION_DOT":-2.3e-7,"MEAN_MOTION_DDOT":0},{"OBJECT_NAME":"ONEWEB-0546","OBJECT_ID":"2023-043C","EPOCH":"2026-03-14T11:36:03.016800","MEAN_MOTION":13.16604724,"ECCENTRICITY":0.00017255,"INCLINATION":87.9012,"RA_OF_ASC_NODE":247.605,"ARG_OF_PERICENTER":69.6375,"MEAN_ANOMALY":290.4941,"EPHEMERIS_TYPE":0,"CLASSIFICATION_TYPE":"U","NORAD_CAT_ID":56048,"ELEMENT_SET_NO":999,"REV_AT_EPOCH":14650,"BSTAR":0.0021032158,"MEAN_MOTION_DOT":8.17e-6,"MEAN_MOTION_DDOT":0},{"OBJECT_NAME":"ONEWEB-0547","OBJECT_ID":"2023-043D","EPOCH":"2026-03-14T13:15:53.502912","MEAN_MOTION":13.21825076,"ECCENTRICITY":0.000181,"INCLINATION":87.9162,"RA_OF_ASC_NODE":262.8386,"ARG_OF_PERICENTER":94.6478,"MEAN_ANOMALY":265.4862,"EPHEMERIS_TYPE":0,"CLASSIFICATION_TYPE":"U","NORAD_CAT_ID":56049,"ELEMENT_SET_NO":999,"REV_AT_EPOCH":14572,"BSTAR":0.00016025266,"MEAN_MOTION_DOT":7.9e-7,"MEAN_MOTION_DDOT":0},{"OBJECT_NAME":"ONEWEB-0548","OBJECT_ID":"2023-043E","EPOCH":"2026-03-14T12:11:25.576224","MEAN_MOTION":13.1659322,"ECCENTRICITY":0.00012669,"INCLINATION":87.9006,"RA_OF_ASC_NODE":247.5997,"ARG_OF_PERICENTER":104.7938,"MEAN_ANOMALY":255.3333,"EPHEMERIS_TYPE":0,"CLASSIFICATION_TYPE":"U","NORAD_CAT_ID":56050,"ELEMENT_SET_NO":999,"REV_AT_EPOCH":14650,"BSTAR":-8.075688e-5,"MEAN_MOTION_DOT":-1.8e-7,"MEAN_MOTION_DDOT":0}]
