ONEWEB-0665             
1 55825U 23029AF  26073.62008688 -.00000008  00000+0 -56855-4 0  9999
2 55825  87.8969 308.6033 0001692  93.4992 266.6332 13.14503028146984
ONEWEB-0666             
1 55826U 23029AG  26073.56491794  .00000099  00000+0  21203-3 0  9993
2 55826  87.9153 293.3764 0001869  64.2765 295.8561 13.20770748148669
ONEWEB-0667             
1 55827U 23029AH  26073.55861017  .00000081  00000+0  16752-3 0  9996
2 55827  87.9172 293.3195 0001616  92.9299 267.2019 13.20770760148653
ONEWEB-0669             
1 55828U 23029AJ  26073.55387344  .00000117  00000+0  25696-3 0  9990
2 55828  87.9156 293.3446 0001132  73.0507 287.0750 13.20771103148654
ONEWEB-0670             
1 55829U 23029AK  26073.59787855 -.00000188  00000+0 -54095-3 0  9991
2 55829  87.8971 308.6266 0001332  93.7388 266.3894 13.14503367147002
ONEWEB-0671             
1 55830U 23029AL  26073.59577946  .00000005  00000+0 -20919-4 0  9997
2 55830  87.9223 323.8275 0001678  86.2343 273.8982 13.19724965146425
ONEWEB-0672             
1 55831U 23029AM  26073.62491137  .00001325  00000+0  32245-2 0  9997
2 55831  87.9158 293.3170 0001758  77.1514 282.9816 13.20786898148666
ONEWEB-0673             
1 55832U 23029AN  26073.64868394  .00000074  00000+0  15363-3 0  9996
2 55832  87.9225 323.8022 0001642  86.0017 274.1303 13.19724197146435
ONEWEB-0674             
1 55833U 23029AP  26073.41393010  .00000254  00000+0  65064-3 0  9993
2 55833  87.8973 308.6404 0001266  92.8930 267.2345 13.14502753146965
ONEWEB-0675             
1 55834U 23029AQ  26073.66370011  .00000031  00000+0  45689-4 0  9992
2 55834  87.9218 323.8154 0001966  73.7475 286.3874 13.19724678146459
ONEWEB-0720             
1 55835U 23029AR  26073.65580935  .00000006  00000+0 -17465-4 0  9994
2 55835  87.9223 323.8174 0001870  90.2598 269.8749 13.19724997146374
ONEWEB-0537             
1 56046U 23043A   26073.42638089 -.00000009  00000+0 -57936-4 0  9995
2 56046  87.9011 247.6165 0001652  89.6287 270.5033 13.16593464146490
ONEWEB-0538             
1 56047U 23043B   26073.49605343 -.00000023  00000+0 -93779-4 0  9991
2 56047  87.9008 247.6051 0001892  93.4138 266.7209 13.16594220146511
ONEWEB-0546             
1 56048U 23043C   26073.48336825  .00000817  00000+0  21032-2 0  9997
2 56048  87.9012 247.6050 0001725  69.6375 290.4941 13.16604724146506
ONEWEB-0547             
1 56049U 23043D   26073.55270258  .00000079  00000+0  16025-3 0  9990
2 56049  87.9162 262.8386 0001810  94.6478 265.4862 13.21825076145729
ONEWEB-0548             
1 56050U 23043E   26073.50793491 -.00000018  00000+0 -80757-4 0  9995
2 56050  87.9006 247.5997 0001266 104.7938 255.3333 13.16593220146500
